BREEZE-M DEB            
1 38880U 12044M   17345.39279785  .00204872  14501-4  12851-2 0  9995
2 38880  49.7603 336.1112 0661843  15.7749 346.2752 14.56234126227842
